GLOBALSTAR M035         
1 25851U 99037A   24349.40492220 -.00000051  00000+0  49252-3 0  9995
2 25851  51.9940 107.0449 0014019  47.4493 337.6952 11.04534998 75856
GLOBALSTAR M032         
1 25852U 99037B   24348.27070425 -.00000074  00000+0 -23814-3 0  9991
2 25852  51.9970 307.5986 0010367 216.1402 143.8698 11.19054836113974
GLOBALSTAR M051         
1 25853U 99037C   24348.70264771 -.00000073  00000+0 -17963-4 0  9997
2 25853  51.9768 128.3484 0000919 174.4058 185.6763 11.42199813111210
GLOBALSTAR M030         
1 25854U 99037D   24348.63987582 -.00000101  00000+0 -55044-3 0  9995
2 25854  51.9894 306.4053 0004136  71.7461 288.3806 11.55100964128708
GLOBALSTAR M048         
1 25872U 99041A   24349.15013201 -.00000070  00000+0 -11472-4 0  9999
2 25872  51.9390  55.1495 0013394 221.6469 150.9012 11.33852350103870
GLOBALSTAR M026         
1 25873U 99041B   24347.94305589 -.00000078  00000+0 -51695-3 0  9996
2 25873  51.9991 230.2251 0001236 350.8663 131.3200 11.06824554127869
GLOBALSTAR M043         
1 25874U 99041C   24348.49645762 -.00000048  00000+0  60724-3 0  9997
2 25874  51.9363 156.9461 0012945   0.3493  31.9696 11.25688718101965
GLOBALSTAR M028         
1 25875U 99041D   24348.48859685 -.00000022  00000+0  50821-3 0  9997
2 25875  51.9644  26.7823 0063294  28.4754 331.9542 12.50572246166947
